STARLINK-4394           
1 53467U 22099C   26068.88266734  .00006448  00000+0  45068-3 0  9990
2 53467  97.6021 191.4652 0001214 230.8564 129.2555 15.05649111196071
ICEYE-X36               
1 59103U 24043F   26068.88263796  .00006107  00000+0  42379-3 0  9993
2 59103  97.8198 205.3571 0004801 299.2298  60.8448 15.05951442110197
